STARLINK-30325          
1 57717U 23129V   26068.51122732 -.00000732  00000+0 -17614-4 0  9995
2 57717  43.0013 119.0461 0000929 281.5541  78.5206 15.26741436140651
FLOCK 4G-30             
1 62679U 25009BY  26068.70871344  .00013147  00000+0  49475-3 0  9999
2 62679  97.3969 150.6012 0003795 342.4152  17.6955 15.27244548121341
